IRIDIUM 155             
1 43573U 18061E   25096.91831374  .00000132  00000+0  40093-4 0  9991
2 43573  86.3962 238.9323 0001872  91.7037 268.4373 14.34218607350831
IRIDIUM 154             
1 43574U 18061F   25096.89928365  .00000604  00000+0  20863-3 0  9992
2 43574  86.3959 239.0519 0002037  93.2085 266.9343 14.34217026350879
IRIDIUM 163             
1 43575U 18061G   25096.88026015 -.00000157  00000+0 -63132-4 0  9995
2 43575  86.3961 238.9897 0002056  91.1434 268.9997 14.34216960350846
IRIDIUM 156             
1 43576U 18061H   25097.13396268 -.00000019  00000+0 -14009-4 0  9991
2 43576  86.3963 238.8905 0001636  96.2682 263.8700 14.34217631350866
IRIDIUM 164             
1 43577U 18061J   25096.90563073 -.00000160  00000+0 -64249-4 0  9994
2 43577  86.3963 239.0192 0002103 102.6145 257.5286 14.34217034350882
IRIDIUM 159             
1 43578U 18061K   25096.87391630  .00000177  00000+0  56186-4 0  9996
2 43578  86.3962 238.9781 0002302  95.4936 264.6523 14.34218272350846
IRIDIUM 180             
1 43922U 19002A   25097.22225659  .00000240  00000+0  78663-4 0  9997
2 43922  86.4037 175.8062 0002279  93.4952 266.6504 14.34218551326544
IRIDIUM 176             
1 43923U 19002B   25096.94224455  .00002311  00000+0  36241-3 0  9995
2 43923  86.6158 175.9227 0002465  81.4596 278.6900 14.72263187335060
IRIDIUM 168             
1 43924U 19002C   25097.21591270  .00000280  00000+0  92992-4 0  9998
2 43924  86.4040 175.8739 0002286  97.0576 263.0880 14.34218291326483
IRIDIUM 173             
1 43925U 19002D   25097.27299775  .00000060  00000+0  14388-4 0  9999
2 43925  86.4037 175.7571 0002184  91.9597 268.1849 14.34217247326487
IRIDIUM 169             
1 43926U 19002E   25096.78977888  .00000750  00000+0  23881-3 0  9996
2 43926  86.4286 207.5214 0001379  55.2101 304.9226 14.38613927327489
IRIDIUM 172             
1 43927U 19002F   25096.91781334  .00000554  00000+0  19087-3 0  9996
2 43927  86.4034 175.9120 0002581  92.2865 267.8626 14.34215441326439
IRIDIUM 175             
1 43928U 19002G   25097.54877908  .00001923  00000+0  30093-3 0  9991
2 43928  86.1490 132.2270 0001383 106.7117 253.4251 14.72255312335141
IRIDIUM 171             
1 43929U 19002H   25096.75924683 -.00000166  00000+0 -66182-4 0  9996
2 43929  86.4048 176.2352 0002068 107.2314 252.9108 14.34216746326409
IRIDIUM 170             
1 43930U 19002J   25096.94842955  .00002298  00000+0  36049-3 0  9994
2 43930  86.6160 175.9253 0001889  97.9194 262.2237 14.72253501335077
IRIDIUM 167             
1 43931U 19002K   25096.82267242 -.00000046  00000+0 -23640-4 0  9997
2 43931  86.4037 175.9697 0001732 105.3072 254.8315 14.34217307326411
IRIDIUM 181             
1 56726U 23068S   25096.88599048  .00000972  00000+0  28284-3 0  9992
2 56726  86.4502 238.9959 0002138 110.6674 249.4756 14.43306138 99500
IRIDIUM 177             
1 56727U 23068T   25096.75140025  .00003286  00000+0  42906-3 0  9994
2 56727  86.2027 176.0157 0002088 106.1397 254.0054 14.80220926101800
IRIDIUM 174             
1 56728U 23068U   25095.05592673  .00003489  00000+0  45530-3 0  9998
2 56728  86.2033 176.9456 0002820  97.4869 262.6672 14.80257143101553
IRIDIUM 178             
1 56729U 23068V   25096.87570139  .00003403  00000+0  44447-3 0  9995
2 56729  86.6599 207.5681 0002358 101.4474 258.7013 14.80228205101822
IRIDIUM 179             
1 56730U 23068W   25096.93801273  .00003544  00000+0  46268-3 0  9999
2 56730  86.6824 215.2002 0002007  85.6137 274.5314 14.80259454101839
